NORAD_CAT_ID,OBJECT_NAME,OBJECT_TYPE,EPOCH,MEAN_MOTION,ECCENTRICITY,INCLINATION,RA_OF_ASC_NODE,ARG_OF_PERICENTER,MEAN_ANOMALY,BSTAR,MEAN_MOTION_DOT,MEAN_MOTION_DDOT,TLE_LINE0,TLE_LINE1,TLE_LINE2,SEMIMAJOR_AXIS,PERIOD,APOGEE,PERIGEE,DECAYED
54066.0,STARLINK-5151,PAYLOAD,2022-11-06 14:00:01,15.73076293,0.0001361,53.2171,63.9039,40.1631,228.5071,-0.0088801,-0.01109176,0.0,0 STARLINK-5151,1 54066U 22136R   22310.58334491 -.01109176  00000-0 -88801-2 0  9994,2 54066  53.2171  63.9039 0001361  40.1631 228.5071 15.73076293  3188,6728.248000000001,91.54,351.029,349.19699999999995,0.0
54066.0,STARLINK-5151,PAYLOAD,2022-11-07 08:00:01,15.71205461,0.0001784,53.2175,60.1964,27.2421,168.6667,-0.01033,-0.01202172,0.0,0 STARLINK-5151,1 54066U 22136R   22311.33334491 -.01202172  00000-0 -10330-1 0  9999,2 54066  53.2175  60.1964 0001784  27.2421 168.6667 15.71205461  3308,6733.5880000000025,91.649,356.654,354.251,0.0
54066.0,STARLINK-5151,PAYLOAD,2022-11-07 22:00:00,15.69703016,0.0001445,53.2171,57.3222,43.4621,212.2724,-0.01098,-0.01199532,0.0,0 STARLINK-5151,1 54066U 22136R   22311.91667824 -.01199532  00000-0 -10980-1 0  9998,2 54066  53.2171  57.3222 0001445  43.4621 212.2724 15.69703016  1309,6737.884,91.737,360.722,358.775,0.0
54066.0,STARLINK-5151,PAYLOAD,2022-11-08 10:00:01,15.68415929,0.0005269,53.2175,54.8625,273.8166,287.8939,-0.01153,-0.01196471,0.0,0 STARLINK-5151,1 54066U 22136R   22312.41668981 -.01196471  00000-0 -11530-1 0  9990,2 54066  53.2175  54.8625 0005269 273.8166 287.8939 15.68415929  3471,6741.569,91.812,366.987,359.88199999999995,0.0
54066.0,STARLINK-5151,PAYLOAD,2022-11-08 12:00:00,15.68302996,0.0001145,53.2172,54.4544,44.0216,268.3243,-0.012921,-0.01317347,0.0,0 STARLINK-5151,1 54066U 22136R   22312.50001157 -.01317347  00000-0 -12921-1 0  9998,2 54066  53.2172  54.4544 0001145  44.0216 268.3243 15.68302996  3489,6741.893,91.819,364.53,362.986,0.0
54066.0,STARLINK-5151,PAYLOAD,2022-11-08 14:00:01,15.68034854,0.0001462,53.2172,54.0457,42.71100000000001,20.3655,-0.012427,-0.01259796,0.0,0 STARLINK-5151,1 54066U 22136R   22312.58334491 -.01259796  00000-0 -12427-1 0  9990,2 54066  53.2172  54.0457 0001462  42.7110  20.3655 15.68034854  1305,6742.6619999999975,91.835,365.512,363.541,0.0
54066.0,STARLINK-5151,PAYLOAD,2022-11-08 22:00:00,15.67142444,0.0001812,53.217,52.4091,31.1238,114.1088,-0.01236,-0.0121317,0.0,0 STARLINK-5151,1 54066U 22136R   22312.91667824 -.01213170  00000-0 -12360-1 0  9998,2 54066  53.2170  52.4091 0001812  31.1238 114.1088 15.67142444  3545,6745.221,91.887,368.3080000000001,365.864,0.0
54066.0,STARLINK-5151,PAYLOAD,2022-11-09 14:00:01,15.65431674,0.0001406,53.2175,49.1445,42.0027,264.413,-0.013299,-0.01217051,0.0,0 STARLINK-5151,1 54066U 22136R   22313.58334491 -.01217051  00000-0 -13299-1 0  9997,2 54066  53.2175  49.1445 0001406  42.0027 264.4130 15.65431674  1305,6750.135,91.987,372.949,371.05,0.0
54066.0,STARLINK-5151,PAYLOAD,2022-11-09 22:00:01,15.64562243,0.000177,53.217,47.5142,29.1567,356.37800000000016,-0.013549,-0.01199445,0.0,0 STARLINK-5151,1 54066U 22136R   22313.91668981 -.01199445  00000-0 -13549-1 0  9992,2 54066  53.2170  47.5142 0001770  29.1567 356.3780 15.64562243  3709,6752.635,92.039,375.695,373.305,0.0
54066.0,STARLINK-5151,PAYLOAD,2022-11-10 14:00:01,15.62870435,0.0001846,53.2173,44.2625,38.2937,142.1692,-0.014872,-0.01227757,0.0,0 STARLINK-5151,1 54066U 22136R   22314.58334491 -.01227757  00000-0 -14872-1 0  9990,2 54066  53.2173  44.2625 0001846  38.2937 142.1692 15.62870435  1308,6757.507,92.138,380.62,378.125,0.0
54066.0,STARLINK-5151,PAYLOAD,2022-11-10 22:00:00,15.62018781,0.0001623,53.2169,42.6385,32.4484,223.9701,-0.015486,-0.01235342,0.0,0 STARLINK-5151,1 54066U 22136R   22314.91667824 -.01235342  00000-0 -15486-1 0  9997,2 54066  53.2169  42.6385 0001623  32.4484 223.9701 15.62018781  3864,6759.9630000000025,92.188,382.925,380.731,0.0
54066.0,STARLINK-5151,PAYLOAD,2022-11-11 14:00:01,15.60286605,0.0001494,53.2175,39.3987,34.7625,10.4904,-0.0162129999999999,-0.01211609,0.0,0 STARLINK-5151,1 54066U 22136R   22315.58334491 -.01211609  00000-0 -16213-1 0  9991,2 54066  53.2175  39.3987 0001494  34.7625  10.4904 15.60286605  1301,6764.965999999999,92.291,387.841,385.82,0.0
54066.0,STARLINK-5151,PAYLOAD,2022-11-11 22:00:00,15.59413109,0.0001763,53.2172,37.7807,36.9793,81.1488,-0.016397,-0.01187586,0.0,0 STARLINK-5151,1 54066U 22136R   22315.91667824 -.01187586  00000-0 -16397-1 0  9996,2 54066  53.2172  37.7807 0001763  36.9793  81.1488 15.59413109  1301,6767.4919999999975,92.342,390.55,388.163,0.0
54066.0,STARLINK-5151,PAYLOAD,2022-11-12 08:00:01,15.58344469,0.0001494,53.2175,35.7617,36.1934,261.5705,-0.017151,-0.01191903,0.0,0 STARLINK-5151,1 54066U 22136R   22316.33334491 -.01191903  00000-0 -17151-1 0  9991,2 54066  53.2175  35.7617 0001494  36.1934 261.5705 15.58344469  4086,6770.585,92.406,393.462,391.439,0.0
54066.0,STARLINK-5151,PAYLOAD,2022-11-12 14:00:01,15.57704125,0.0001472,53.2176,34.554,48.2889,212.4815,-0.017616,-0.01194524,0.0,0 STARLINK-5151,1 54066U 22136R   22316.58334491 -.01194524  00000-0 -17616-1 0  9996,2 54066  53.2176  34.5540 0001472  48.2889 212.4815 15.57704125  1305,6772.44,92.444,395.302,393.309,0.0
54066.0,STARLINK-5151,PAYLOAD,2022-11-12 22:00:00,15.56845629,0.0001431999999999,53.2171,32.9416,36.203,294.3473,-0.018182,-0.01193688,0.0,0 STARLINK-5151,1 54066U 22136R   22316.91667824 -.01193688  00000-0 -18182-1 0  9991,2 54066  53.2171  32.9416 0001432  36.2030 294.3473 15.56845629  1308,6774.93,92.495,397.765,395.825,0.0
54066.0,STARLINK-5151,PAYLOAD,2022-11-13 06:00:02,15.55996609,0.0001685,53.217,31.3324,28.7854,10.573,-0.018927,-0.01202759,0.0,0 STARLINK-5151,1 54066U 22136R   22317.25002315 -.01202759  00000-0 -18927-1 0  9994,2 54066  53.2170  31.3324 0001685  28.7854  10.5730 15.55996609  4220,6777.394,92.545,400.401,398.117,0.0
54066.0,STARLINK-5151,PAYLOAD,2022-11-13 14:00:01,15.55140954,0.000177,53.2172,29.7281,35.1521,71.8568,-0.019564,-0.01204134,0.0,0 STARLINK-5151,1 54066U 22136R   22317.58334491 -.01204134  00000-0 -19564-1 0  9990,2 54066  53.2172  29.7281 0001770  35.1521  71.8568 15.55140954  1302,6779.88,92.596,402.945,400.545,0.0
54066.0,STARLINK-5151,PAYLOAD,2022-11-13 22:00:00,15.54297931,0.0001881,53.2171,28.122,34.3223,139.368,-0.02052,-0.0124144,0.0,0 STARLINK-5151,1 54066U 22136R   22317.91667824 -.01241440  00000-0 -20520-1 0  9991,2 54066  53.2171  28.1220 0001881  34.3223 139.3680 15.54297931  1302,6782.331,92.646,405.472,402.92,0.0
54066.0,STARLINK-5151,PAYLOAD,2022-11-14 14:00:01,15.52556432,0.0001749,53.2175,24.9194,32.1166,271.8725,-0.021158,-0.01204497,0.0,0 STARLINK-5151,1 54066U 22136R   22318.58334491 -.01204497  00000-0 -21158-1 0  9995,2 54066  53.2175  24.9194 0001749  32.1166 271.8725 15.52556432  4436,6787.401999999999,92.75,410.454,408.08,0.0
54066.0,STARLINK-5151,PAYLOAD,2022-11-14 22:00:00,15.51700337,0.0001725,53.2175,23.3192,27.4782,340.1094,-0.021867,-0.0120664,0.0,0 STARLINK-5151,1 54066U 22136R   22318.91667824 -.01206640  00000-0 -21867-1 0  9990,2 54066  53.2175  23.3192 0001725  27.4782 340.1094 15.51700337  1308,6789.898,92.801,412.935,410.592,0.0
54066.0,STARLINK-5151,PAYLOAD,2022-11-15 14:00:01,15.49995651,0.0001833,53.2174,20.1311,33.5683,98.1524,-0.0030689,-0.00171549,0.0,0 STARLINK-5151,1 54066U 22136R   22319.58334491 -.00171549  00000-0 -30689-2 0  9996,2 54066  53.2174  20.1311 0001833  33.5683  98.1524 15.49995651  1303,6794.876,92.903,417.986,415.495,0.0
54066.0,STARLINK-5151,PAYLOAD,2022-11-15 18:00:02,15.49886085,0.0001732,53.2172,19.3327,38.5515,303.7463,-1.9765e-05,-1.573e-05,0.0,0 STARLINK-5151,1 54066U 22136R   22319.75002315 -.00001573  00000-0 -19765-4 0  9995,2 54066  53.2172  19.3327 0001732  38.5515 303.7463 15.49886085  4619,6795.196,92.91,418.23800000000006,415.884,0.0
54066.0,STARLINK-5151,PAYLOAD,2022-11-15 22:00:00,15.49885877,0.000162,53.2176,18.5351,40.7221,151.969,-9.8259e-06,-1.009e-05,0.0,0 STARLINK-5151,1 54066U 22136R   22319.91667824 -.00001009  00000-0 -98259-5 0  9995,2 54066  53.2176  18.5351 0001620  40.7221 151.9690 15.49885877  1302,6795.196999999999,92.91,418.162,415.961,0.0
54066.0,STARLINK-5151,PAYLOAD,2022-11-16 14:00:01,15.49884194,0.0001751999999999,53.2174,15.3508,38.2199,276.3642,4.6727e-05,2.201e-05,0.0,0 STARLINK-5151,1 54066U 22136R   22320.58335648  .00002201  00000-0  46727-4 0  9991,2 54066  53.2174  15.3508 0001752  38.2199 276.3642 15.49884194  1301,6795.2019999999975,92.91,418.257,415.876,0.0
54066.0,STARLINK-5151,PAYLOAD,2022-11-16 20:00:01,15.49887475,0.0001664,53.2173,14.1546,39.2155,230.9896,-7.8024e-05,-4.878e-05,0.0,0 STARLINK-5151,1 54066U 22136R   22320.83334491 -.00004878  00000-0 -78024-4 0  9993,2 54066  53.2173  14.1546 0001664  39.2155 230.9896 15.49887475  4781,6795.191999999999,92.91,418.18800000000016,415.926,0.0
54066.0,STARLINK-5151,PAYLOAD,2022-11-16 22:00:08,15.49885256,0.0001649,53.2174,13.7555,40.4341,335.4530000000001,9.6747e-07,-3.97e-06,0.0,0 STARLINK-5151,1 54066U 22136R   22320.91675926 -.00000397  00000-0  96747-6 0  9998,2 54066  53.2174  13.7555 0001649  40.4341 335.4530 15.49885256  1307,6795.198,92.91,418.184,415.943,0.0
54066.0,STARLINK-5151,PAYLOAD,2022-11-17 06:00:00,15.49899363,0.0001913,53.2153,12.1685,41.8587,34.6254,-0.00080078,-0.00045661,0.0,0 STARLINK-5151,1 54066U 22136R   22321.25001157 -.00045661  00000-0 -80078-3 0  9996,2 54066  53.2153  12.1685 0001913  41.8587  34.6254 15.49899363  4849,6795.156999999997,92.909,418.322,415.722,0.0
54066.0,STARLINK-5151,PAYLOAD,2022-11-17 14:00:01,15.498456699999998,0.0002151,53.2154,10.577,38.1684,99.232,0.0011135,0.00063171,0.0,0 STARLINK-5151,1 54066U 22136R   22321.58334491  .00063171  00000-0  11135-2 0  9993,2 54066  53.2154  10.5770 0002151  38.1684  99.2320 15.49845670  1300,6795.314,92.912,418.641,415.717,0.0
